{
    "links": {
        "self": "http://www.neowsapp.com/rest/v1/neo/3663259?api_key=iIulBulltgU6a56xZRHN4H3l9WmuAYTsLGpBGhQ2"
    },
    "id": "3663259",
    "neo_reference_id": "3663259",
    "name": "(2014 EM)",
    "designation": "2014 EM",
    "nasa_jpl_url": "http://ssd.jpl.nasa.gov/sbdb.cgi?sstr=3663259",
    "absolute_magnitude_h": 25.4,
    "estimated_diameter": {
        "kilometers": {
            "estimated_diameter_min": 0.022108281,
            "estimated_diameter_max": 0.0494356193
        },
        "meters": {
            "estimated_diameter_min": 22.1082810359,
            "estimated_diameter_max": 49.435619262
        },
        "miles": {
            "estimated_diameter_min": 0.0137374447,
            "estimated_diameter_max": 0.0307178602
        },
        "feet": {
            "estimated_diameter_min": 72.5337327539,
            "estimated_diameter_max": 162.1903570994
        }
    },
    "is_potentially_hazardous_asteroid": false,
    "close_approach_data": [
        {
            "close_approach_date": "1941-02-16",
            "close_approach_date_full": "1941-Feb-16 04:27",
            "epoch_date_close_approach": -911158380000,
            "relative_velocity": {
                "kilometers_per_second": "22.5365369607",
                "kilometers_per_hour": "81131.5330586417",
                "miles_per_hour": "50411.9795274654"
            },
            "miss_distance": {
                "astronomical": "0.3683808825",
                "lunar": "143.3001632925",
                "kilometers": "55108995.370720275",
                "miles": "34243141.847778795"
            },
            "orbiting_body": "Earth"
        },
        {
            "close_approach_date": "1941-06-21",
            "close_approach_date_full": "1941-Jun-21 01:11",
            "epoch_date_close_approach": -900370140000,
            "relative_velocity": {
                "kilometers_per_second": "14.7917077145",
                "kilometers_per_hour": "53250.1477723156",
                "miles_per_hour": "33087.5709866369"
            },
            "miss_distance": {
                "astronomical": "0.030660941",
                "lunar": "11.927106049",
                "kilometers": "4586811.46579567",
                "miles": "2850112.483373446"
            },
            "orbiting_body": "Mars"
        },
        {
            "close_approach_date": "2014-03-15",
            "close_approach_date_full": "2014-Mar-15 04:59",
            "epoch_date_close_approach": 1394859540000,
            "relative_velocity": {
                "kilometers_per_second": "11.6852849471",
                "kilometers_per_hour": "42067.025809434",
                "miles_per_hour": "26138.8138980897"
            },
            "miss_distance": {
                "astronomical": "0.0111543432",
                "lunar": "4.3390395048",
                "kilometers": "1668665.983968984",
                "miles": "1036860.9625566192"
            },
            "orbiting_body": "Earth"
        }
    ],
    "orbital_data": {
        "orbit_id": "15",
        "orbit_determination_date": "2017-04-06 08:42:10",
        "first_observation_date": "2014-03-05",
        "last_observation_date": "2014-03-14",
        "data_arc_in_days": 9,
        "observations_used": 146,
        "orbit_uncertainty": "7",
        "minimum_orbit_intersection": ".00595061",
        "jupiter_tisserand_invariant": "3.658",
        "epoch_osculation": "2459000.5",
        "eccentricity": ".5445255202726269",
        "semi_major_axis": "1.982195664918564",
        "inclination": "4.142571153443105",
        "ascending_node_longitude": "350.8148024359875",
        "orbital_period": "1019.337988837307",
        "perihelion_distance": ".9028395391966375",
        "perihelion_argument": "227.4020402514712",
        "aphelion_distance": "3.061551790640491",
        "perihelion_time": "2458803.437083625013",
        "mean_anomaly": "69.59678798581311",
        "mean_motion": ".3531703948467854",
        "equinox": "J2000",
        "orbit_class": {
            "orbit_class_type": "APO",
            "orbit_class_description": "Near-Earth asteroid orbits which cross the Earth’s orbit similar to that of 1862 Apollo",
            "orbit_class_range": "a (semi-major axis) > 1.0 AU; q (perihelion) < 1.017 AU"
        }
    },
    "is_sentry_object": false
}